{"type": "FeatureCollection", "generated_at": "2026-10-10T16:16:51Z", "radar_timestamp": "2026-10-10T16:05:00Z", "features": [{"type": "Feature", "geometry": {"type": "Point", "coordinates": [14.047321229097896, 43.772908502652726]}, "properties": {"cell_id": "2026-10-10T16:05:00Z-037", "timestamp": "2026-10-10T16:05:00Z", "timestamp_ms": 1791648300000, "area_km2": 23998.0, "centroid_lonlat": [14.04732, 43.77291], "centroid_raster": [451.38, 724.08], "bbox_raster": [287, 634, 599, 827], "max_dbz": 47.0, "mean_dbz": 24.61, "p90_dbz": 34.0, "eccentricity": 0.8645, "solidity": 0.5807, "compactness": 20.3948, "pixel_count": 23998, "track_id": 79, "source": "Radar-DPC VMI (GeoTIFF quantitativo)"}}, {"type": "Feature", "geometry": {"type": "Point", "coordinates": [17.12114934850066, 40.89574808618825]}, "properties": {"cell_id": "2026-10-10T16:05:00Z-068", "timestamp": "2026-10-10T16:05:00Z", "timestamp_ms": 1791648300000, "area_km2": 3741.0, "centroid_lonlat": [17.12115, 40.89575], "centroid_raster": [761.85, 988.97], "bbox_raster": [719, 950, 801, 1033], "max_dbz": 40.5, "mean_dbz": 28.03, "p90_dbz": 35.0, "eccentricity": 0.6386, "solidity": 0.7996, "compactness": 3.6812, "pixel_count": 3741, "track_id": 10, "source": "Radar-DPC VMI (GeoTIFF quantitativo)"}}, {"type": "Feature", "geometry": {"type": "Point", "coordinates": [16.357556903304072, 36.17225610419332]}, "properties": {"cell_id": "2026-10-10T16:05:00Z-127", "timestamp": "2026-10-10T16:05:00Z", "timestamp_ms": 1791648300000, "area_km2": 3656.0, "centroid_lonlat": [16.35756, 36.17226], "centroid_raster": [1289.58, 946.63], "bbox_raster": [1244, 890, 1353, 997], "max_dbz": 53.0, "mean_dbz": -27.0, "p90_dbz": 43.5, "eccentricity": 0.9372, "solidity": 0.6816, "compactness": 6.4414, "pixel_count": 3656, "track_id": 4, "source": "Radar-DPC VMI (GeoTIFF quantitativo)"}}, {"type": "Feature", "geometry": {"type": "Point", "coordinates": [8.399295464234264, 47.0944839430822]}, "properties": {"cell_id": "2026-10-10T16:05:00Z-006", "timestamp": "2026-10-10T16:05:00Z", "timestamp_ms": 1791648300000, "area_km2": 3607.0, "centroid_lonlat": [8.3993, 47.09448], "centroid_raster": [75.22, 288.19], "bbox_raster": [42, 221, 128, 343], "max_dbz": 44.0, "mean_dbz": 13.3, "p90_dbz": 34.0, "eccentricity": 0.6092, "solidity": 0.503, "compactness": 16.4692, "pixel_count": 3607, "track_id": 82, "source": "Radar-DPC VMI (GeoTIFF quantitativo)"}}, {"type": "Feature", "geometry": {"type": "Point", "coordinates": [15.975528776613276, 37.974114075616356]}, "properties": {"cell_id": "2026-10-10T16:05:00Z-099", "timestamp": "2026-10-10T16:05:00Z", "timestamp_ms": 1791648300000, "area_km2": 3414.0, "centroid_lonlat": [15.97553, 37.97411], "centroid_raster": [1090.81, 904.92], "bbox_raster": [1042, 875, 1135, 944], "max_dbz": 46.0, "mean_dbz": 7.94, "p90_dbz": 37.0, "eccentricity": 0.7959, "solidity": 0.7052, "compactness": 7.6264, "pixel_count": 3414, "track_id": 2, "source": "Radar-DPC VMI (GeoTIFF quantitativo)"}}, {"type": "Feature", "geometry": {"type": "Point", "coordinates": [16.622717169359067, 37.21920730005669]}, "properties": {"cell_id": "2026-10-10T16:05:00Z-108", "timestamp": "2026-10-10T16:05:00Z", "timestamp_ms": 1791648300000, "area_km2": 3125.0, "centroid_lonlat": [16.62272, 37.21921], "centroid_raster": [1172.33, 965.5], "bbox_raster": [1101, 926, 1227, 997], "max_dbz": 40.0, "mean_dbz": 6.64, "p90_dbz": 32.0, "eccentricity": 0.9518, "solidity": 0.5238, "compactness": 7.8721, "pixel_count": 3125, "track_id": 68, "source": "Radar-DPC VMI (GeoTIFF quantitativo)"}}, {"type": "Feature", "geometry": {"type": "Point", "coordinates": [14.315748731241612, 45.49700112055855]}, "properties": {"cell_id": "2026-10-10T16:05:00Z-032", "timestamp": "2026-10-10T16:05:00Z", "timestamp_ms": 1791648300000, "area_km2": 2686.0, "centroid_lonlat": [14.31575, 45.497], "centroid_raster": [259.35, 741.42], "bbox_raster": [201, 710, 314, 771], "max_dbz": 41.5, "mean_dbz": 28.16, "p90_dbz": 35.5, "eccentricity": 0.9641, "solidity": 0.7623, "compactness": 6.489, "pixel_count": 2686, "track_id": 9, "source": "Radar-DPC VMI (GeoTIFF quantitativo)"}}, {"type": "Feature", "geometry": {"type": "Point", "coordinates": [13.453724685620998, 40.65239683931265]}, "properties": {"cell_id": "2026-10-10T16:05:00Z-081", "timestamp": "2026-10-10T16:05:00Z", "timestamp_ms": 1791648300000, "area_km2": 1976.0, "centroid_lonlat": [13.45372, 40.6524], "centroid_raster": [798.73, 680.16], "bbox_raster": [774, 648, 832, 717], "max_dbz": 39.0, "mean_dbz": 16.39, "p90_dbz": 32.5, "eccentricity": 0.872, "solidity": 0.8475, "compactness": 2.9795, "pixel_count": 1976, "track_id": 6, "source": "Radar-DPC VMI (GeoTIFF quantitativo)"}}, {"type": "Feature", "geometry": {"type": "Point", "coordinates": [15.172857404821201, 40.8186160501408]}, "properties": {"cell_id": "2026-10-10T16:05:00Z-073", "timestamp": "2026-10-10T16:05:00Z", "timestamp_ms": 1791648300000, "area_km2": 1483.0, "centroid_lonlat": [15.17286, 40.81862], "centroid_raster": [777.27, 825.01], "bbox_raster": [741, 807, 819, 839], "max_dbz": 28.0, "mean_dbz": 23.28, "p90_dbz": 25.5, "eccentricity": 0.9413, "solidity": 0.8749, "compactness": 3.0908, "pixel_count": 1483, "track_id": 12, "source": "Radar-DPC VMI (GeoTIFF quantitativo)"}}, {"type": "Feature", "geometry": {"type": "Point", "coordinates": [13.303854500212767, 46.63205395666828]}, "properties": {"cell_id": "2026-10-10T16:05:00Z-017", "timestamp": "2026-10-10T16:05:00Z", "timestamp_ms": 1791648300000, "area_km2": 1439.0, "centroid_lonlat": [13.30385, 46.63205], "centroid_raster": [134.48, 661.06], "bbox_raster": [95, 637, 179, 689], "max_dbz": 40.5, "mean_dbz": 27.78, "p90_dbz": 35.0, "eccentricity": 0.9742, "solidity": 0.7981, "compactness": 4.6508, "pixel_count": 1439, "track_id": 11, "source": "Radar-DPC VMI (GeoTIFF quantitativo)"}}, {"type": "Feature", "geometry": {"type": "Point", "coordinates": [14.230095260206241, 41.08240370674519]}, "properties": {"cell_id": "2026-10-10T16:05:00Z-069", "timestamp": "2026-10-10T16:05:00Z", "timestamp_ms": 1791648300000, "area_km2": 1382.0, "centroid_lonlat": [14.2301, 41.0824], "centroid_raster": [749.97, 744.88], "bbox_raster": [720, 726, 787, 769], "max_dbz": 37.5, "mean_dbz": 24.83, "p90_dbz": 29.95, "eccentricity": 0.8352, "solidity": 0.6746, "compactness": 4.4501, "pixel_count": 1382, "track_id": 13, "source": "Radar-DPC VMI (GeoTIFF quantitativo)"}}, {"type": "Feature", "geometry": {"type": "Point", "coordinates": [12.474613833352, 41.215497607689876]}, "properties": {"cell_id": "2026-10-10T16:05:00Z-066", "timestamp": "2026-10-10T16:05:00Z", "timestamp_ms": 1791648300000, "area_km2": 962.0, "centroid_lonlat": [12.47461, 41.2155], "centroid_raster": [736.63, 597.37], "bbox_raster": [716, 573, 762, 630], "max_dbz": 51.5, "mean_dbz": -12.56, "p90_dbz": 41.0, "eccentricity": 0.9341, "solidity": 0.6582, "compactness": 4.3002, "pixel_count": 962, "track_id": 17, "source": "Radar-DPC VMI (GeoTIFF quantitativo)"}}, {"type": "Feature", "geometry": {"type": "Point", "coordinates": [11.59466326907936, 40.21571534806996]}, "properties": {"cell_id": "2026-10-10T16:05:00Z-094", "timestamp": "2026-10-10T16:05:00Z", "timestamp_ms": 1791648300000, "area_km2": 949.0, "centroid_lonlat": [11.59466, 40.21572], "centroid_raster": [847.26, 522.43], "bbox_raster": [829, 492, 868, 541], "max_dbz": 33.0, "mean_dbz": -6.82, "p90_dbz": 28.0, "eccentricity": 0.8757, "solidity": 0.822, "compactness": 3.5584, "pixel_count": 949, "track_id": 15, "source": "Radar-DPC VMI (GeoTIFF quantitativo)"}}, {"type": "Feature", "geometry": {"type": "Point", "coordinates": [13.68858916689547, 41.029906169870074]}, "properties": {"cell_id": "2026-10-10T16:05:00Z-072", "timestamp": "2026-10-10T16:05:00Z", "timestamp_ms": 1791648300000, "area_km2": 559.0, "centroid_lonlat": [13.68859, 41.02991], "centroid_raster": [756.56, 699.46], "bbox_raster": [735, 687, 776, 714], "max_dbz": 29.0, "mean_dbz": 23.74, "p90_dbz": 27.0, "eccentricity": 0.8272, "solidity": 0.8633, "compactness": 3.0345, "pixel_count": 559, "track_id": 21, "source": "Radar-DPC VMI (GeoTIFF quantitativo)"}}, {"type": "Feature", "geometry": {"type": "Point", "coordinates": [16.180042518265907, 37.30397931182873]}, "properties": {"cell_id": "2026-10-10T16:05:00Z-113", "timestamp": "2026-10-10T16:05:00Z", "timestamp_ms": 1791648300000, "area_km2": 528.0, "centroid_lonlat": [16.18004, 37.30398], "centroid_raster": [1164.53, 925.82], "bbox_raster": [1149, 908, 1180, 939], "max_dbz": 39.5, "mean_dbz": -48.63, "p90_dbz": 36.0, "eccentricity": 0.4283, "solidity": 0.7719, "compactness": 4.8832, "pixel_count": 528, "track_id": 3, "source": "Radar-DPC VMI (GeoTIFF quantitativo)"}}, {"type": "Feature", "geometry": {"type": "Point", "coordinates": [15.3339389232795, 37.52308460977398]}, "properties": {"cell_id": "2026-10-10T16:05:00Z-110", "timestamp": "2026-10-10T16:05:00Z", "timestamp_ms": 1791648300000, "area_km2": 527.0, "centroid_lonlat": [15.33394, 37.52308], "centroid_raster": [1142.8, 850.04], "bbox_raster": [1128, 836, 1160, 865], "max_dbz": 52.0, "mean_dbz": 30.36, "p90_dbz": 42.5, "eccentricity": 0.7815, "solidity": 0.8215, "compactness": 3.6748, "pixel_count": 527, "track_id": 30, "source": "Radar-DPC VMI (GeoTIFF quantitativo)"}}, {"type": "Feature", "geometry": {"type": "Point", "coordinates": [12.481570541937106, 40.56714284813635]}, "properties": {"cell_id": "2026-10-10T16:05:00Z-083", "timestamp": "2026-10-10T16:05:00Z", "timestamp_ms": 1791648300000, "area_km2": 511.0, "centroid_lonlat": [12.48157, 40.56714], "centroid_raster": [808.63, 597.94], "bbox_raster": [789, 583, 826, 610], "max_dbz": 35.5, "mean_dbz": 27.91, "p90_dbz": 34.0, "eccentricity": 0.931, "solidity": 0.8973, "compactness": 2.6318, "pixel_count": 511, "track_id": 20, "source": "Radar-DPC VMI (GeoTIFF quantitativo)"}}, {"type": "Feature", "geometry": {"type": "Point", "coordinates": [15.90591781468556, 36.31248527041778]}, "properties": {"cell_id": "2026-10-10T16:05:00Z-128", "timestamp": "2026-10-10T16:05:00Z", "timestamp_ms": 1791648300000, "area_km2": 502.0, "centroid_lonlat": [15.90592, 36.31249], "centroid_raster": [1275.53, 905.43], "bbox_raster": [1253, 894, 1294, 914], "max_dbz": 46.0, "mean_dbz": 10.4, "p90_dbz": 39.0, "eccentricity": 0.9394, "solidity": 0.9535, "compactness": 2.5972, "pixel_count": 502, "track_id": 45, "source": "Radar-DPC VMI (GeoTIFF quantitativo)"}}, {"type": "Feature", "geometry": {"type": "Point", "coordinates": [10.48638813031301, 42.30589765434132]}, "properties": {"cell_id": "2026-10-10T16:05:00Z-048", "timestamp": "2026-10-10T16:05:00Z", "timestamp_ms": 1791648300000, "area_km2": 337.0, "centroid_lonlat": [10.48639, 42.3059], "centroid_raster": [613.56, 433.47], "bbox_raster": [592, 424, 636, 441], "max_dbz": 37.0, "mean_dbz": 28.24, "p90_dbz": 35.5, "eccentricity": 0.9769, "solidity": 0.824, "compactness": 3.8688, "pixel_count": 337, "track_id": 27, "source": "Radar-DPC VMI (GeoTIFF quantitativo)"}}, {"type": "Feature", "geometry": {"type": "Point", "coordinates": [15.862009923776952, 37.166914357576964]}, "properties": {"cell_id": "2026-10-10T16:05:00Z-116", "timestamp": "2026-10-10T16:05:00Z", "timestamp_ms": 1791648300000, "area_km2": 328.0, "centroid_lonlat": [15.86201, 37.16691], "centroid_raster": [1180.8, 898.15], "bbox_raster": [1171, 885, 1191, 915], "max_dbz": 46.5, "mean_dbz": -61.37, "p90_dbz": 42.5, "eccentricity": 0.8617, "solidity": 0.7932, "compactness": 4.2273, "pixel_count": 328, "track_id": 83, "source": "Radar-DPC VMI (GeoTIFF quantitativo)"}}, {"type": "Feature", "geometry": {"type": "Point", "coordinates": [15.939669612159527, 36.733807079075575]}, "properties": {"cell_id": "2026-10-10T16:05:00Z-122", "timestamp": "2026-10-10T16:05:00Z", "timestamp_ms": 1791648300000, "area_km2": 325.0, "centroid_lonlat": [15.93967, 36.73381], "centroid_raster": [1228.65, 906.79], "bbox_raster": [1218, 897, 1242, 919], "max_dbz": 43.0, "mean_dbz": 28.11, "p90_dbz": 37.0, "eccentricity": 0.7531, "solidity": 0.8564, "compactness": 3.0714, "pixel_count": 325, "track_id": 19, "source": "Radar-DPC VMI (GeoTIFF quantitativo)"}}, {"type": "Feature", "geometry": {"type": "Point", "coordinates": [11.057693461437529, 40.60007922195749]}, "properties": {"cell_id": "2026-10-10T16:05:00Z-084", "timestamp": "2026-10-10T16:05:00Z", "timestamp_ms": 1791648300000, "area_km2": 277.0, "centroid_lonlat": [11.05769, 40.60008], "centroid_raster": [803.97, 477.42], "bbox_raster": [791, 469, 818, 485], "max_dbz": 44.5, "mean_dbz": 29.39, "p90_dbz": 39.5, "eccentricity": 0.92, "solidity": 1.0, "compactness": 2.1247, "pixel_count": 277, "track_id": 32, "source": "Radar-DPC VMI (GeoTIFF quantitativo)"}}, {"type": "Feature", "geometry": {"type": "Point", "coordinates": [16.50607302474097, 41.12845404455767]}, "properties": {"cell_id": "2026-10-10T16:05:00Z-070", "timestamp": "2026-10-10T16:05:00Z", "timestamp_ms": 1791648300000, "area_km2": 272.0, "centroid_lonlat": [16.50607, 41.12845], "centroid_raster": [738.56, 935.93], "bbox_raster": [731, 921, 748, 948], "max_dbz": 25.0, "mean_dbz": 21.27, "p90_dbz": 23.0, "eccentricity": 0.8161, "solidity": 0.8933, "compactness": 2.3698, "pixel_count": 272, "track_id": 49, "source": "Radar-DPC VMI (GeoTIFF quantitativo)"}}, {"type": "Feature", "geometry": {"type": "Point", "coordinates": [16.053721995240608, 41.45780805981972]}, "properties": {"cell_id": "2026-10-10T16:05:00Z-063", "timestamp": "2026-10-10T16:05:00Z", "timestamp_ms": 1791648300000, "area_km2": 260.0, "centroid_lonlat": [16.05372, 41.45781], "centroid_raster": [703.62, 896.44], "bbox_raster": [679, 891, 723, 901], "max_dbz": 28.0, "mean_dbz": 22.88, "p90_dbz": 26.0, "eccentricity": 0.9868, "solidity": 0.7831, "compactness": 4.2617, "pixel_count": 260, "track_id": 31, "source": "Radar-DPC VMI (GeoTIFF quantitativo)"}}, {"type": "Feature", "geometry": {"type": "Point", "coordinates": [10.202235981321035, 47.3496725219452]}, "properties": {"cell_id": "2026-10-10T16:05:00Z-005", "timestamp": "2026-10-10T16:05:00Z", "timestamp_ms": 1791648300000, "area_km2": 251.0, "centroid_lonlat": [10.20224, 47.34967], "centroid_raster": [52.45, 425.89], "bbox_raster": [40, 413, 63, 440], "max_dbz": 30.5, "mean_dbz": 24.71, "p90_dbz": 28.5, "eccentricity": 0.9498, "solidity": 0.8243, "compactness": 3.1704, "pixel_count": 251, "track_id": 84, "source": "Radar-DPC VMI (GeoTIFF quantitativo)"}}, {"type": "Feature", "geometry": {"type": "Point", "coordinates": [12.456081381607518, 40.86861017870609]}, "properties": {"cell_id": "2026-10-10T16:05:00Z-078", "timestamp": "2026-10-10T16:05:00Z", "timestamp_ms": 1791648300000, "area_km2": 247.0, "centroid_lonlat": [12.45608, 40.86861], "centroid_raster": [775.15, 595.8], "bbox_raster": [767, 585, 785, 607], "max_dbz": 38.5, "mean_dbz": -55.62, "p90_dbz": 30.5, "eccentricity": 0.8113, "solidity": 0.8517, "compactness": 2.6096, "pixel_count": 247, "track_id": 33, "source": "Radar-DPC VMI (GeoTIFF quantitativo)"}}, {"type": "Feature", "geometry": {"type": "Point", "coordinates": [15.375418227100175, 41.8396611559368]}, "properties": {"cell_id": "2026-10-10T16:05:00Z-059", "timestamp": "2026-10-10T16:05:00Z", "timestamp_ms": 1791648300000, "area_km2": 239.0, "centroid_lonlat": [15.37542, 41.83966], "centroid_raster": [663.31, 838.34], "bbox_raster": [648, 829, 682, 846], "max_dbz": 47.5, "mean_dbz": 23.57, "p90_dbz": 29.6, "eccentricity": 0.9385, "solidity": 0.6265, "compactness": 5.0374, "pixel_count": 239, "track_id": 37, "source": "Radar-DPC VMI (GeoTIFF quantitativo)"}}, {"type": "Feature", "geometry": {"type": "Point", "coordinates": [15.272618283388358, 45.481341168091554]}, "properties": {"cell_id": "2026-10-10T16:05:00Z-035", "timestamp": "2026-10-10T16:05:00Z", "timestamp_ms": 1791648300000, "area_km2": 231.0, "centroid_lonlat": [15.27262, 45.48134], "centroid_raster": [258.96, 816.27], "bbox_raster": [244, 809, 274, 821], "max_dbz": 26.0, "mean_dbz": 22.01, "p90_dbz": 24.5, "eccentricity": 0.9609, "solidity": 0.8324, "compactness": 2.9158, "pixel_count": 231, "track_id": 40, "source": "Radar-DPC VMI (GeoTIFF quantitativo)"}}, {"type": "Feature", "geometry": {"type": "Point", "coordinates": [16.14585175542968, 43.22584747106025]}, "properties": {"cell_id": "2026-10-10T16:05:00Z-042", "timestamp": "2026-10-10T16:05:00Z", "timestamp_ms": 1791648300000, "area_km2": 219.0, "centroid_lonlat": [16.14585, 43.22585], "centroid_raster": [506.87, 895.71], "bbox_raster": [498, 878, 513, 908], "max_dbz": 32.0, "mean_dbz": 23.9, "p90_dbz": 29.5, "eccentricity": 0.9016, "solidity": 0.7949, "compactness": 3.4898, "pixel_count": 219, "track_id": 23, "source": "Radar-DPC VMI (GeoTIFF quantitativo)"}}, {"type": "Feature", "geometry": {"type": "Point", "coordinates": [10.964223921616027, 47.51870784575836]}, "properties": {"cell_id": "2026-10-10T16:05:00Z-003", "timestamp": "2026-10-10T16:05:00Z", "timestamp_ms": 1791648300000, "area_km2": 178.0, "centroid_lonlat": [10.96422, 47.51871], "centroid_raster": [35.08, 483.83], "bbox_raster": [28, 474, 41, 493], "max_dbz": 24.5, "mean_dbz": 22.16, "p90_dbz": 24.0, "eccentricity": 0.845, "solidity": 1.0, "compactness": 1.9474, "pixel_count": 178, "track_id": 1, "source": "Radar-DPC VMI (GeoTIFF quantitativo)"}}, {"type": "Feature", "geometry": {"type": "Point", "coordinates": [14.58853733283497, 43.15581479897682]}, "properties": {"cell_id": "2026-10-10T16:05:00Z-043", "timestamp": "2026-10-10T16:05:00Z", "timestamp_ms": 1791648300000, "area_km2": 177.0, "centroid_lonlat": [14.58854, 43.15581], "centroid_raster": [518.99, 769.37], "bbox_raster": [511, 762, 526, 776], "max_dbz": 39.0, "mean_dbz": 29.34, "p90_dbz": 38.0, "eccentricity": 0.7669, "solidity": 1.0, "compactness": 1.5124, "pixel_count": 177, "track_id": 46, "source": "Radar-DPC VMI (GeoTIFF quantitativo)"}}, {"type": "Feature", "geometry": {"type": "Point", "coordinates": [13.759030586227034, 38.65644151490764]}, "properties": {"cell_id": "2026-10-10T16:05:00Z-097", "timestamp": "2026-10-10T16:05:00Z", "timestamp_ms": 1791648300000, "area_km2": 151.0, "centroid_lonlat": [13.75903, 38.65644], "centroid_raster": [1020.02, 709.09], "bbox_raster": [1013, 698, 1027, 720], "max_dbz": 24.5, "mean_dbz": 22.61, "p90_dbz": 24.5, "eccentricity": 0.9649, "solidity": 1.0, "compactness": 2.732, "pixel_count": 151, "track_id": 34, "source": "Radar-DPC VMI (GeoTIFF quantitativo)"}}, {"type": "Feature", "geometry": {"type": "Point", "coordinates": [11.084277234005063, 41.525859533330475]}, "properties": {"cell_id": "2026-10-10T16:05:00Z-065", "timestamp": "2026-10-10T16:05:00Z", "timestamp_ms": 1791648300000, "area_km2": 139.0, "centroid_lonlat": [11.08428, 41.52586], "centroid_raster": [701.19, 481.34], "bbox_raster": [696, 473, 708, 489], "max_dbz": 40.5, "mean_dbz": -45.91, "p90_dbz": 36.0, "eccentricity": 0.8246, "solidity": 0.8634, "compactness": 2.8052, "pixel_count": 139, "track_id": 41, "source": "Radar-DPC VMI (GeoTIFF quantitativo)"}}, {"type": "Feature", "geometry": {"type": "Point", "coordinates": [12.352411751401192, 40.17818403457835]}, "properties": {"cell_id": "2026-10-10T16:05:00Z-096", "timestamp": "2026-10-10T16:05:00Z", "timestamp_ms": 1791648300000, "area_km2": 128.0, "centroid_lonlat": [12.35241, 40.17818], "centroid_raster": [851.81, 586.93], "bbox_raster": [845, 582, 858, 592], "max_dbz": 39.0, "mean_dbz": 26.33, "p90_dbz": 35.45, "eccentricity": 0.6561, "solidity": 1.0, "compactness": 1.5542, "pixel_count": 128, "track_id": 52, "source": "Radar-DPC VMI (GeoTIFF quantitativo)"}}, {"type": "Feature", "geometry": {"type": "Point", "coordinates": [16.580513100366748, 37.95827581070392]}, "properties": {"cell_id": "2026-10-10T16:05:00Z-104", "timestamp": "2026-10-10T16:05:00Z", "timestamp_ms": 1791648300000, "area_km2": 123.0, "centroid_lonlat": [16.58051, 37.95828], "centroid_raster": [1090.41, 958.18], "bbox_raster": [1082, 950, 1098, 963], "max_dbz": 26.0, "mean_dbz": 22.72, "p90_dbz": 26.0, "eccentricity": 0.3166, "solidity": 0.8945, "compactness": 2.3291, "pixel_count": 123, "track_id": 56, "source": "Radar-DPC VMI (GeoTIFF quantitativo)"}}, {"type": "Feature", "geometry": {"type": "Point", "coordinates": [14.673742934315179, 43.296778288120336]}, "properties": {"cell_id": "2026-10-10T16:05:00Z-041", "timestamp": "2026-10-10T16:05:00Z", "timestamp_ms": 1791648300000, "area_km2": 106.0, "centroid_lonlat": [14.67374, 43.29678], "centroid_raster": [503.15, 775.9], "bbox_raster": [498, 767, 508, 783], "max_dbz": 38.5, "mean_dbz": 27.2, "p90_dbz": 37.5, "eccentricity": 0.9266, "solidity": 1.0, "compactness": 2.03, "pixel_count": 106, "track_id": 55, "source": "Radar-DPC VMI (GeoTIFF quantitativo)"}}, {"type": "Feature", "geometry": {"type": "Point", "coordinates": [13.023797741831988, 41.17024854453568]}, "properties": {"cell_id": "2026-10-10T16:05:00Z-071", "timestamp": "2026-10-10T16:05:00Z", "timestamp_ms": 1791648300000, "area_km2": 103.0, "centroid_lonlat": [13.0238, 41.17025], "centroid_raster": [741.52, 643.46], "bbox_raster": [734, 640, 749, 647], "max_dbz": 27.0, "mean_dbz": 22.76, "p90_dbz": 25.9, "eccentricity": 0.8874, "solidity": 1.0, "compactness": 1.4957, "pixel_count": 103, "track_id": 38, "source": "Radar-DPC VMI (GeoTIFF quantitativo)"}}, {"type": "Feature", "geometry": {"type": "Point", "coordinates": [14.725153359347745, 40.8529954036781]}, "properties": {"cell_id": "2026-10-10T16:05:00Z-079", "timestamp": "2026-10-10T16:05:00Z", "timestamp_ms": 1791648300000, "area_km2": 103.0, "centroid_lonlat": [14.72515, 40.853], "centroid_raster": [774.5, 787.14], "bbox_raster": [769, 781, 781, 792], "max_dbz": 23.5, "mean_dbz": 20.86, "p90_dbz": 22.0, "eccentricity": 0.8143, "solidity": 1.0, "compactness": 1.6348, "pixel_count": 103, "track_id": 28, "source": "Radar-DPC VMI (GeoTIFF quantitativo)"}}, {"type": "Feature", "geometry": {"type": "Point", "coordinates": [6.244560903353772, 45.91871001062097]}, "properties": {"cell_id": "2026-10-10T16:05:00Z-030", "timestamp": "2026-10-10T16:05:00Z", "timestamp_ms": 1791648300000, "area_km2": 98.0, "centroid_lonlat": [6.24456, 45.91871], "centroid_raster": [195.02, 114.26], "bbox_raster": [188, 108, 204, 120], "max_dbz": 35.5, "mean_dbz": 24.39, "p90_dbz": 31.0, "eccentricity": 0.8687, "solidity": 0.8596, "compactness": 2.5465, "pixel_count": 98, "track_id": 86, "source": "Radar-DPC VMI (GeoTIFF quantitativo)"}}, {"type": "Feature", "geometry": {"type": "Point", "coordinates": [16.441859453446103, 37.4291213883985]}, "properties": {"cell_id": "2026-10-10T16:05:00Z-112", "timestamp": "2026-10-10T16:05:00Z", "timestamp_ms": 1791648300000, "area_km2": 93.0, "centroid_lonlat": [16.44186, 37.42912], "centroid_raster": [1149.7, 948.46], "bbox_raster": [1145, 942, 1155, 956], "max_dbz": 26.5, "mean_dbz": -191.62, "p90_dbz": 26.4, "eccentricity": 0.8903, "solidity": 1.0, "compactness": 1.9715, "pixel_count": 93, "track_id": 65, "source": "Radar-DPC VMI (GeoTIFF quantitativo)"}}, {"type": "Feature", "geometry": {"type": "Point", "coordinates": [16.379870117934466, 38.316730629934305]}, "properties": {"cell_id": "2026-10-10T16:05:00Z-101", "timestamp": "2026-10-10T16:05:00Z", "timestamp_ms": 1791648300000, "area_km2": 91.0, "centroid_lonlat": [16.37987, 38.31673], "centroid_raster": [1051.35, 938.87], "bbox_raster": [1046, 934, 1057, 944], "max_dbz": 21.5, "mean_dbz": 20.47, "p90_dbz": 21.5, "eccentricity": 0.4879, "solidity": 1.0, "compactness": 1.5426, "pixel_count": 91, "track_id": 14, "source": "Radar-DPC VMI (GeoTIFF quantitativo)"}}, {"type": "Feature", "geometry": {"type": "Point", "coordinates": [14.584015019693194, 42.135244964513426]}, "properties": {"cell_id": "2026-10-10T16:05:00Z-056", "timestamp": "2026-10-10T16:05:00Z", "timestamp_ms": 1791648300000, "area_km2": 80.0, "centroid_lonlat": [14.58402, 42.13524], "centroid_raster": [632.38, 771.8], "bbox_raster": [627, 768, 638, 776], "max_dbz": 35.0, "mean_dbz": 27.71, "p90_dbz": 34.05, "eccentricity": 0.6862, "solidity": 1.0, "compactness": 1.4364, "pixel_count": 80, "track_id": 62, "source": "Radar-DPC VMI (GeoTIFF quantitativo)"}}, {"type": "Feature", "geometry": {"type": "Point", "coordinates": [14.549169542751693, 40.74728307490012]}, "properties": {"cell_id": "2026-10-10T16:05:00Z-082", "timestamp": "2026-10-10T16:05:00Z", "timestamp_ms": 1791648300000, "area_km2": 79.0, "centroid_lonlat": [14.54917, 40.74728], "centroid_raster": [786.61, 772.57], "bbox_raster": [781, 769, 794, 777], "max_dbz": 30.0, "mean_dbz": 25.71, "p90_dbz": 30.0, "eccentricity": 0.8487, "solidity": 1.0, "compactness": 1.7769, "pixel_count": 79, "track_id": 51, "source": "Radar-DPC VMI (GeoTIFF quantitativo)"}}, {"type": "Feature", "geometry": {"type": "Point", "coordinates": [16.106200232017503, 36.550525750934845]}, "properties": {"cell_id": "2026-10-10T16:05:00Z-126", "timestamp": "2026-10-10T16:05:00Z", "timestamp_ms": 1791648300000, "area_km2": 78.0, "centroid_lonlat": [16.1062, 36.55053], "centroid_raster": [1248.45, 922.44], "bbox_raster": [1241, 918, 1255, 926], "max_dbz": 46.0, "mean_dbz": 29.24, "p90_dbz": 39.0, "eccentricity": 0.9363, "solidity": 1.0, "compactness": 1.9752, "pixel_count": 78, "track_id": 85, "source": "Radar-DPC VMI (GeoTIFF quantitativo)"}}, {"type": "Feature", "geometry": {"type": "Point", "coordinates": [9.160491323134726, 47.15364445113014]}, "properties": {"cell_id": "2026-10-10T16:05:00Z-010", "timestamp": "2026-10-10T16:05:00Z", "timestamp_ms": 1791648300000, "area_km2": 76.0, "centroid_lonlat": [9.16049, 47.15364], "centroid_raster": [71.39, 346.25], "bbox_raster": [65, 342, 78, 350], "max_dbz": 26.0, "mean_dbz": 22.23, "p90_dbz": 24.0, "eccentricity": 0.9056, "solidity": 1.0, "compactness": 2.0271, "pixel_count": 76, "track_id": 87, "source": "Radar-DPC VMI (GeoTIFF quantitativo)"}}, {"type": "Feature", "geometry": {"type": "Point", "coordinates": [16.793451609305343, 37.96602386575756]}, "properties": {"cell_id": "2026-10-10T16:05:00Z-105", "timestamp": "2026-10-10T16:05:00Z", "timestamp_ms": 1791648300000, "area_km2": 74.0, "centroid_lonlat": [16.79345, 37.96602], "centroid_raster": [1088.7, 976.86], "bbox_raster": [1083, 972, 1095, 982], "max_dbz": 25.0, "mean_dbz": 22.61, "p90_dbz": 25.0, "eccentricity": 0.9309, "solidity": 1.0, "compactness": 2.0819, "pixel_count": 74, "track_id": 44, "source": "Radar-DPC VMI (GeoTIFF quantitativo)"}}, {"type": "Feature", "geometry": {"type": "Point", "coordinates": [12.144294100934264, 42.291547193075615]}, "properties": {"cell_id": "2026-10-10T16:05:00Z-053", "timestamp": "2026-10-10T16:05:00Z", "timestamp_ms": 1791648300000, "area_km2": 73.0, "centroid_lonlat": [12.14429, 42.29155], "centroid_raster": [617.05, 570.16], "bbox_raster": [612, 565, 622, 575], "max_dbz": 39.5, "mean_dbz": 29.4, "p90_dbz": 37.3, "eccentricity": 0.8343, "solidity": 1.0, "compactness": 1.7442, "pixel_count": 73, "track_id": 93, "source": "Radar-DPC VMI (GeoTIFF quantitativo)"}}, {"type": "Feature", "geometry": {"type": "Point", "coordinates": [14.776491585902928, 40.57542837531]}, "properties": {"cell_id": "2026-10-10T16:05:00Z-087", "timestamp": "2026-10-10T16:05:00Z", "timestamp_ms": 1791648300000, "area_km2": 68.0, "centroid_lonlat": [14.77649, 40.57543], "centroid_raster": [805.22, 792.26], "bbox_raster": [801, 789, 810, 796], "max_dbz": 29.5, "mean_dbz": 24.96, "p90_dbz": 28.0, "eccentricity": 0.6852, "solidity": 1.0, "compactness": 1.1983, "pixel_count": 68, "track_id": 26, "source": "Radar-DPC VMI (GeoTIFF quantitativo)"}}, {"type": "Feature", "geometry": {"type": "Point", "coordinates": [16.905751497711005, 37.15226816908194]}, "properties": {"cell_id": "2026-10-10T16:05:00Z-117", "timestamp": "2026-10-10T16:05:00Z", "timestamp_ms": 1791648300000, "area_km2": 67.0, "centroid_lonlat": [16.90575, 37.15227], "centroid_raster": [1178.63, 990.99], "bbox_raster": [1174, 986, 1182, 998], "max_dbz": 23.0, "mean_dbz": 21.11, "p90_dbz": 23.0, "eccentricity": 0.8987, "solidity": 1.0, "compactness": 1.9004, "pixel_count": 67, "track_id": 35, "source": "Radar-DPC VMI (GeoTIFF quantitativo)"}}, {"type": "Feature", "geometry": {"type": "Point", "coordinates": [14.696466861949634, 40.47254977563676]}, "properties": {"cell_id": "2026-10-10T16:05:00Z-088", "timestamp": "2026-10-10T16:05:00Z", "timestamp_ms": 1791648300000, "area_km2": 66.0, "centroid_lonlat": [14.69647, 40.47255], "centroid_raster": [816.82, 785.77], "bbox_raster": [813, 781, 820, 791], "max_dbz": 36.0, "mean_dbz": 26.67, "p90_dbz": 30.0, "eccentricity": 0.7523, "solidity": 1.0, "compactness": 1.3938, "pixel_count": 66, "track_id": 24, "source": "Radar-DPC VMI (GeoTIFF quantitativo)"}}, {"type": "Feature", "geometry": {"type": "Point", "coordinates": [16.28568701791441, 36.5783329011843]}, "properties": {"cell_id": "2026-10-10T16:05:00Z-125", "timestamp": "2026-10-10T16:05:00Z", "timestamp_ms": 1791648300000, "area_km2": 66.0, "centroid_lonlat": [16.28569, 36.57833], "centroid_raster": [1244.74, 938.39], "bbox_raster": [1240, 935, 1249, 943], "max_dbz": 24.0, "mean_dbz": 21.16, "p90_dbz": 23.0, "eccentricity": 0.7011, "solidity": 1.0, "compactness": 1.3938, "pixel_count": 66, "track_id": 22, "source": "Radar-DPC VMI (GeoTIFF quantitativo)"}}, {"type": "Feature", "geometry": {"type": "Point", "coordinates": [9.206806971502559, 47.541067827853745]}, "properties": {"cell_id": "2026-10-10T16:05:00Z-002", "timestamp": "2026-10-10T16:05:00Z", "timestamp_ms": 1791648300000, "area_km2": 65.0, "centroid_lonlat": [9.20681, 47.54107], "centroid_raster": [28.48, 351.58], "bbox_raster": [25, 347, 32, 357], "max_dbz": 30.0, "mean_dbz": 23.75, "p90_dbz": 28.0, "eccentricity": 0.7234, "solidity": 1.0, "compactness": 1.4153, "pixel_count": 65, "track_id": 88, "source": "Radar-DPC VMI (GeoTIFF quantitativo)"}}, {"type": "Feature", "geometry": {"type": "Point", "coordinates": [13.644602614153508, 47.20778789302745]}, "properties": {"cell_id": "2026-10-10T16:05:00Z-009", "timestamp": "2026-10-10T16:05:00Z", "timestamp_ms": 1791648300000, "area_km2": 65.0, "centroid_lonlat": [13.6446, 47.20779], "centroid_raster": [70.15, 686.22], "bbox_raster": [63, 683, 77, 690], "max_dbz": 25.5, "mean_dbz": 22.47, "p90_dbz": 24.0, "eccentricity": 0.9526, "solidity": 1.0, "compactness": 2.1596, "pixel_count": 65, "track_id": 7, "source": "Radar-DPC VMI (GeoTIFF quantitativo)"}}, {"type": "Feature", "geometry": {"type": "Point", "coordinates": [16.375141360753904, 36.66867657235892]}, "properties": {"cell_id": "2026-10-10T16:05:00Z-124", "timestamp": "2026-10-10T16:05:00Z", "timestamp_ms": 1791648300000, "area_km2": 64.0, "centroid_lonlat": [16.37514, 36.66868], "centroid_raster": [1234.39, 946.0], "bbox_raster": [1230, 943, 1239, 949], "max_dbz": 23.5, "mean_dbz": 21.95, "p90_dbz": 23.5, "eccentricity": 0.7214, "solidity": 1.0, "compactness": 1.1191, "pixel_count": 64, "track_id": 5, "source": "Radar-DPC VMI (GeoTIFF quantitativo)"}}, {"type": "Feature", "geometry": {"type": "Point", "coordinates": [13.919571343100133, 47.047228130177196]}, "properties": {"cell_id": "2026-10-10T16:05:00Z-016", "timestamp": "2026-10-10T16:05:00Z", "timestamp_ms": 1791648300000, "area_km2": 62.0, "centroid_lonlat": [13.91957, 47.04723], "centroid_raster": [87.66, 707.37], "bbox_raster": [84, 703, 91, 712], "max_dbz": 27.0, "mean_dbz": 22.76, "p90_dbz": 26.5, "eccentricity": 0.5889, "solidity": 1.0, "compactness": 1.3143, "pixel_count": 62, "track_id": 39, "source": "Radar-DPC VMI (GeoTIFF quantitativo)"}}, {"type": "Feature", "geometry": {"type": "Point", "coordinates": [11.380592911249854, 41.3260397072891]}, "properties": {"cell_id": "2026-10-10T16:05:00Z-067", "timestamp": "2026-10-10T16:05:00Z", "timestamp_ms": 1791648300000, "area_km2": 60.0, "centroid_lonlat": [11.38059, 41.32604], "centroid_raster": [723.75, 505.78], "bbox_raster": [718, 502, 729, 509], "max_dbz": 42.0, "mean_dbz": 30.83, "p90_dbz": 39.5, "eccentricity": 0.902, "solidity": 1.0, "compactness": 1.7189, "pixel_count": 60, "track_id": 90, "source": "Radar-DPC VMI (GeoTIFF quantitativo)"}}, {"type": "Feature", "geometry": {"type": "Point", "coordinates": [15.763831106203614, 36.93497258697122]}, "properties": {"cell_id": "2026-10-10T16:05:00Z-118", "timestamp": "2026-10-10T16:05:00Z", "timestamp_ms": 1791648300000, "area_km2": 58.0, "centroid_lonlat": [15.76383, 36.93497], "centroid_raster": [1206.86, 890.31], "bbox_raster": [1203, 886, 1211, 894], "max_dbz": 31.0, "mean_dbz": 27.33, "p90_dbz": 29.0, "eccentricity": 0.6192, "solidity": 1.0, "compactness": 1.405, "pixel_count": 58, "track_id": 70, "source": "Radar-DPC VMI (GeoTIFF quantitativo)"}}, {"type": "Feature", "geometry": {"type": "Point", "coordinates": [14.67537186891089, 40.34236028545312]}, "properties": {"cell_id": "2026-10-10T16:05:00Z-092", "timestamp": "2026-10-10T16:05:00Z", "timestamp_ms": 1791648300000, "area_km2": 53.0, "centroid_lonlat": [14.67537, 40.34236], "centroid_raster": [831.32, 784.34], "bbox_raster": [826, 781, 836, 787], "max_dbz": 37.0, "mean_dbz": 28.07, "p90_dbz": 32.5, "eccentricity": 0.8993, "solidity": 1.0, "compactness": 1.5375, "pixel_count": 53, "track_id": 53, "source": "Radar-DPC VMI (GeoTIFF quantitativo)"}}, {"type": "Feature", "geometry": {"type": "Point", "coordinates": [16.8848313356792, 36.83144635684014]}, "properties": {"cell_id": "2026-10-10T16:05:00Z-120", "timestamp": "2026-10-10T16:05:00Z", "timestamp_ms": 1791648300000, "area_km2": 52.0, "centroid_lonlat": [16.88483, 36.83145], "centroid_raster": [1214.35, 990.77], "bbox_raster": [1210, 988, 1218, 994], "max_dbz": 25.5, "mean_dbz": 22.05, "p90_dbz": 25.2, "eccentricity": 0.6933, "solidity": 1.0, "compactness": 1.1998, "pixel_count": 52, "track_id": 42, "source": "Radar-DPC VMI (GeoTIFF quantitativo)"}}, {"type": "Feature", "geometry": {"type": "Point", "coordinates": [13.552065771376311, 38.408203890243115]}, "properties": {"cell_id": "2026-10-10T16:05:00Z-100", "timestamp": "2026-10-10T16:05:00Z", "timestamp_ms": 1791648300000, "area_km2": 51.0, "centroid_lonlat": [13.55207, 38.4082], "centroid_raster": [1047.8, 691.39], "bbox_raster": [1044, 687, 1051, 695], "max_dbz": 24.5, "mean_dbz": 22.55, "p90_dbz": 24.0, "eccentricity": 0.843, "solidity": 1.0, "compactness": 1.4043, "pixel_count": 51, "track_id": 97, "source": "Radar-DPC VMI (GeoTIFF quantitativo)"}}, {"type": "Feature", "geometry": {"type": "Point", "coordinates": [5.907810622423592, 45.616961151054944]}, "properties": {"cell_id": "2026-10-10T16:05:00Z-034", "timestamp": "2026-10-10T16:05:00Z", "timestamp_ms": 1791648300000, "area_km2": 50.0, "centroid_lonlat": [5.90781, 45.61696], "centroid_raster": [226.44, 85.36], "bbox_raster": [221, 81, 231, 89], "max_dbz": 27.0, "mean_dbz": 23.26, "p90_dbz": 25.55, "eccentricity": 0.9213, "solidity": 0.9901, "compactness": 1.9496, "pixel_count": 50, "track_id": 89, "source": "Radar-DPC VMI (GeoTIFF quantitativo)"}}, {"type": "Feature", "geometry": {"type": "Point", "coordinates": [13.028749047027695, 42.38709360108935]}, "properties": {"cell_id": "2026-10-10T16:05:00Z-050", "timestamp": "2026-10-10T16:05:00Z", "timestamp_ms": 1791648300000, "area_km2": 49.0, "centroid_lonlat": [13.02875, 42.38709], "centroid_raster": [606.37, 643.04], "bbox_raster": [602, 640, 610, 647], "max_dbz": 25.0, "mean_dbz": 22.24, "p90_dbz": 24.5, "eccentricity": 0.7679, "solidity": 1.0, "compactness": 1.4616, "pixel_count": 49, "track_id": 29, "source": "Radar-DPC VMI (GeoTIFF quantitativo)"}}, {"type": "Feature", "geometry": {"type": "Point", "coordinates": [14.661665622831414, 40.64111858356889]}, "properties": {"cell_id": "2026-10-10T16:05:00Z-086", "timestamp": "2026-10-10T16:05:00Z", "timestamp_ms": 1791648300000, "area_km2": 47.0, "centroid_lonlat": [14.66167, 40.64112], "centroid_raster": [798.17, 782.36], "bbox_raster": [794, 779, 802, 785], "max_dbz": 38.5, "mean_dbz": 27.67, "p90_dbz": 37.5, "eccentricity": 0.7169, "solidity": 1.0, "compactness": 1.3274, "pixel_count": 47, "track_id": 91, "source": "Radar-DPC VMI (GeoTIFF quantitativo)"}}, {"type": "Feature", "geometry": {"type": "Point", "coordinates": [11.666292805286565, 41.074682712634846]}, "properties": {"cell_id": "2026-10-10T16:05:00Z-075", "timestamp": "2026-10-10T16:05:00Z", "timestamp_ms": 1791648300000, "area_km2": 46.0, "centroid_lonlat": [11.66629, 41.07468], "centroid_raster": [751.93, 529.43], "bbox_raster": [748, 526, 756, 533], "max_dbz": 43.5, "mean_dbz": 32.55, "p90_dbz": 41.0, "eccentricity": 0.8825, "solidity": 1.0, "compactness": 1.557, "pixel_count": 46, "track_id": 54, "source": "Radar-DPC VMI (GeoTIFF quantitativo)"}}, {"type": "Feature", "geometry": {"type": "Point", "coordinates": [12.841835404987062, 43.138063579303164]}, "properties": {"cell_id": "2026-10-10T16:05:00Z-044", "timestamp": "2026-10-10T16:05:00Z", "timestamp_ms": 1791648300000, "area_km2": 45.0, "centroid_lonlat": [12.84184, 43.13806], "centroid_raster": [523.02, 627.31], "bbox_raster": [519, 624, 527, 631], "max_dbz": 27.5, "mean_dbz": 23.81, "p90_dbz": 26.8, "eccentricity": 0.895, "solidity": 1.0, "compactness": 1.5915, "pixel_count": 45, "track_id": 78, "source": "Radar-DPC VMI (GeoTIFF quantitativo)"}}, {"type": "Feature", "geometry": {"type": "Point", "coordinates": [15.436369502578746, 37.90541277316519]}, "properties": {"cell_id": "2026-10-10T16:05:00Z-107", "timestamp": "2026-10-10T16:05:00Z", "timestamp_ms": 1791648300000, "area_km2": 43.0, "centroid_lonlat": [15.43637, 37.90541], "centroid_raster": [1100.07, 857.77], "bbox_raster": [1097, 854, 1104, 862], "max_dbz": 27.0, "mean_dbz": 23.56, "p90_dbz": 26.0, "eccentricity": 0.9007, "solidity": 1.0, "compactness": 1.6656, "pixel_count": 43, "track_id": 95, "source": "Radar-DPC VMI (GeoTIFF quantitativo)"}}, {"type": "Feature", "geometry": {"type": "Point", "coordinates": [13.19968990517808, 42.385197911544566]}, "properties": {"cell_id": "2026-10-10T16:05:00Z-051", "timestamp": "2026-10-10T16:05:00Z", "timestamp_ms": 1791648300000, "area_km2": 42.0, "centroid_lonlat": [13.19969, 42.3852], "centroid_raster": [606.48, 657.12], "bbox_raster": [603, 654, 610, 660], "max_dbz": 29.5, "mean_dbz": 24.56, "p90_dbz": 27.9, "eccentricity": 0.6871, "solidity": 1.0, "compactness": 1.2808, "pixel_count": 42, "track_id": 60, "source": "Radar-DPC VMI (GeoTIFF quantitativo)"}}, {"type": "Feature", "geometry": {"type": "Point", "coordinates": [9.806020891174315, 47.047808705611274]}, "properties": {"cell_id": "2026-10-10T16:05:00Z-015", "timestamp": "2026-10-10T16:05:00Z", "timestamp_ms": 1791648300000, "area_km2": 39.0, "centroid_lonlat": [9.80602, 47.04781], "centroid_raster": [85.05, 394.79], "bbox_raster": [82, 392, 88, 398], "max_dbz": 28.0, "mean_dbz": 23.86, "p90_dbz": 26.7, "eccentricity": 0.7394, "solidity": 1.0, "compactness": 1.1753, "pixel_count": 39, "track_id": 92, "source": "Radar-DPC VMI (GeoTIFF quantitativo)"}}, {"type": "Feature", "geometry": {"type": "Point", "coordinates": [12.619824175844817, 43.87013603226891]}, "properties": {"cell_id": "2026-10-10T16:05:00Z-039", "timestamp": "2026-10-10T16:05:00Z", "timestamp_ms": 1791648300000, "area_km2": 38.0, "centroid_lonlat": [12.61982, 43.87014], "centroid_raster": [441.74, 609.13], "bbox_raster": [439, 605, 444, 613], "max_dbz": 32.5, "mean_dbz": 25.21, "p90_dbz": 31.8, "eccentricity": 0.8551, "solidity": 1.0, "compactness": 1.4156, "pixel_count": 38, "track_id": 48, "source": "Radar-DPC VMI (GeoTIFF quantitativo)"}}, {"type": "Feature", "geometry": {"type": "Point", "coordinates": [13.425329246346456, 46.13841005041617]}, "properties": {"cell_id": "2026-10-10T16:05:00Z-029", "timestamp": "2026-10-10T16:05:00Z", "timestamp_ms": 1791648300000, "area_km2": 36.0, "centroid_lonlat": [13.42533, 46.13841], "centroid_raster": [189.25, 671.0], "bbox_raster": [187, 668, 192, 674], "max_dbz": 38.5, "mean_dbz": 28.32, "p90_dbz": 37.5, "eccentricity": 0.5895, "solidity": 1.0, "compactness": 1.0699, "pixel_count": 36, "track_id": 43, "source": "Radar-DPC VMI (GeoTIFF quantitativo)"}}, {"type": "Feature", "geometry": {"type": "Point", "coordinates": [9.885950066166796, 40.66004584707711]}, "properties": {"cell_id": "2026-10-10T16:05:00Z-085", "timestamp": "2026-10-10T16:05:00Z", "timestamp_ms": 1791648300000, "area_km2": 35.0, "centroid_lonlat": [9.88595, 40.66005], "centroid_raster": [795.03, 378.43], "bbox_raster": [792, 376, 798, 381], "max_dbz": 26.5, "mean_dbz": 22.79, "p90_dbz": 24.5, "eccentricity": 0.749, "solidity": 1.0, "compactness": 1.1004, "pixel_count": 35, "track_id": 67, "source": "Radar-DPC VMI (GeoTIFF quantitativo)"}}, {"type": "Feature", "geometry": {"type": "Point", "coordinates": [10.880154298801102, 47.64281950571203]}, "properties": {"cell_id": "2026-10-10T16:05:00Z-001", "timestamp": "2026-10-10T16:05:00Z", "timestamp_ms": 1791648300000, "area_km2": 33.0, "centroid_lonlat": [10.88015, 47.64282], "centroid_raster": [21.15, 477.79], "bbox_raster": [18, 475, 24, 480], "max_dbz": 24.5, "mean_dbz": 22.24, "p90_dbz": 24.0, "eccentricity": 0.5866, "solidity": 1.0, "compactness": 1.1671, "pixel_count": 33, "track_id": 94, "source": "Radar-DPC VMI (GeoTIFF quantitativo)"}}, {"type": "Feature", "geometry": {"type": "Point", "coordinates": [10.009120912195808, 47.156755378732576]}, "properties": {"cell_id": "2026-10-10T16:05:00Z-012", "timestamp": "2026-10-10T16:05:00Z", "timestamp_ms": 1791648300000, "area_km2": 31.0, "centroid_lonlat": [10.00912, 47.15676], "centroid_raster": [73.45, 410.61], "bbox_raster": [72, 407, 75, 414], "max_dbz": 28.5, "mean_dbz": 24.85, "p90_dbz": 28.5, "eccentricity": 0.8715, "solidity": 1.0, "compactness": 1.0268, "pixel_count": 31, "track_id": 96, "source": "Radar-DPC VMI (GeoTIFF quantitativo)"}}, {"type": "Feature", "geometry": {"type": "LineString", "coordinates": [[13.975239905506674, 43.77092294845483], [14.060232217015004, 43.75215054757246], [13.616812409618904, 46.96207936439837], [13.625246098804267, 46.96325613111271], [10.964223921616027, 47.51870784575836], [10.964223921616027, 47.51870784575836]]}, "properties": {"feature_type": "track_path", "track_id": 1, "organization_score": 54, "classification": "Convective Cell", "source": "Radar-DPC VMI (GeoTIFF quantitativo)"}}, {"type": "Feature", "geometry": {"type": "LineString", "coordinates": [[16.43300893129895, 39.106633141533685], [16.461570876922632, 39.12484445542667], [16.377153750791127, 38.88975344724013], [16.397634374064406, 38.89234664188702], [16.42588593767086, 38.90047146202738], [15.975528776613276, 37.974114075616356]]}, "properties": {"feature_type": "track_path", "track_id": 2, "organization_score": 60, "classification": "Organized Convective Cell", "source": "Radar-DPC VMI (GeoTIFF quantitativo)"}}, {"type": "Feature", "geometry": {"type": "LineString", "coordinates": [[16.430700227720383, 37.13521701140532], [16.463901486479678, 37.14807804202683], [16.505763544607735, 37.17267922107627], [16.391092390151375, 36.90729152669663], [16.137182760918243, 37.294779313401264], [16.180042518265907, 37.30397931182873]]}, "properties": {"feature_type": "track_path", "track_id": 3, "organization_score": 62, "classification": "Organized Convective Cell", "source": "Radar-DPC VMI (GeoTIFF quantitativo)"}}, {"type": "Feature", "geometry": {"type": "LineString", "coordinates": [[16.3781892867732, 36.295697293011116], [16.384586758752405, 36.22206337773329], [16.38315189281728, 36.21567305429623], [16.372009095135454, 36.19361676664746], [16.400883675368817, 36.20579905450188], [16.357556903304072, 36.17225610419332]]}, "properties": {"feature_type": "track_path", "track_id": 4, "organization_score": 76, "classification": "Highly Organized Convective Cell", "source": "Radar-DPC VMI (GeoTIFF quantitativo)"}}, {"type": "Feature", "geometry": {"type": "LineString", "coordinates": [[15.867631207202118, 37.87933213414676], [15.880890905358818, 37.880956166646314], [15.42434844823661, 37.57964224298106], [16.370245498600585, 37.3643434699133], [16.387312742000994, 37.39782851318122], [16.375141360753904, 36.66867657235892]]}, "properties": {"feature_type": "track_path", "track_id": 5, "organization_score": 62, "classification": "Organized Convective Cell", "source": "Radar-DPC VMI (GeoTIFF quantitativo)"}}, {"type": "Feature", "geometry": {"type": "LineString", "coordinates": [[13.463917047080775, 40.66272376548351], [13.475002572333025, 40.68115459695423], [13.417386589230858, 40.61043051530793], [13.426873942794495, 40.62433016000002], [13.44794814036362, 40.64237061799048], [13.453724685620998, 40.65239683931265]]}, "properties": {"feature_type": "track_path", "track_id": 6, "organization_score": 58, "classification": "Organized Convective Cell", "source": "Radar-DPC VMI (GeoTIFF quantitativo)"}}, {"type": "Feature", "geometry": {"type": "LineString", "coordinates": [[14.234975962818815, 45.45868359539205], [13.483974217328019, 46.87433161082281], [13.568552014668809, 47.170128509955205], [13.609308259217318, 47.193936087059896], [13.619616060418618, 47.19811416131791], [13.644602614153508, 47.20778789302745]]}, "properties": {"feature_type": "track_path", "track_id": 7, "organization_score": 56, "classification": "Organized Convective Cell", "source": "Radar-DPC VMI (GeoTIFF quantitativo)"}}, {"type": "Feature", "geometry": {"type": "LineString", "coordinates": [[8.341915267615535, 47.24036567976222], [8.423195270916281, 47.14179647873065], [8.423195270916281, 47.14179647873065]]}, "properties": {"feature_type": "track_path", "track_id": 8, "organization_score": 50, "classification": "Convective Cell", "source": "Radar-DPC VMI (GeoTIFF quantitativo)"}}, {"type": "Feature", "geometry": {"type": "LineString", "coordinates": [[15.071244889090464, 43.573315776519074], [14.24080385948539, 45.45886649675169], [14.273367137074949, 45.4822654211326], [14.278093160528302, 45.485187797577886], [14.306746944469507, 45.493665606207045], [14.315748731241612, 45.49700112055855]]}, "properties": {"feature_type": "track_path", "track_id": 9, "organization_score": 59, "classification": "Organized Convective Cell", "source": "Radar-DPC VMI (GeoTIFF quantitativo)"}}, {"type": "Feature", "geometry": {"type": "LineString", "coordinates": [[17.434701898358185, 40.63610081676579], [17.444858853183952, 40.68821336435822], [17.173996567168345, 40.77904054316895], [17.166593285534972, 40.78390566445497], [17.148957293777695, 40.885104651314926], [17.12114934850066, 40.89574808618825]]}, "properties": {"feature_type": "track_path", "track_id": 10, "organization_score": 55, "classification": "Convective Cell", "source": "Radar-DPC VMI (GeoTIFF quantitativo)"}}, {"type": "Feature", "geometry": {"type": "LineString", "coordinates": [[13.153077774482561, 46.6161197447115], [13.165103162808105, 46.605450459954255], [13.205282263907042, 46.598395293656594], [13.212736789959134, 46.5902567087972], [13.285138216899725, 46.62839655624965], [13.303854500212767, 46.63205395666828]]}, "properties": {"feature_type": "track_path", "track_id": 11, "organization_score": 62, "classification": "Organized Convective Cell", "source": "Radar-DPC VMI (GeoTIFF quantitativo)"}}, {"type": "Feature", "geometry": {"type": "LineString", "coordinates": [[15.131667310447924, 40.60159710957652], [15.136904378280772, 40.62481119350615], [15.137224733357327, 40.66416302865935], [15.13862245664992, 40.66379929234907], [15.142591384218948, 40.68406377116612], [15.172857404821201, 40.8186160501408]]}, "properties": {"feature_type": "track_path", "track_id": 12, "organization_score": 46, "classification": "Convective Cell", "source": "Radar-DPC VMI (GeoTIFF quantitativo)"}}, {"type": "Feature", "geometry": {"type": "LineString", "coordinates": [[14.182576688217578, 41.035545418698426], [14.189220283929567, 41.04215941259973], [14.188084017113766, 41.06487969622514], [14.204569181154158, 41.07226425319691], [14.218204839617234, 41.08030025961767], [14.230095260206241, 41.08240370674519]]}, "properties": {"feature_type": "track_path", "track_id": 13, "organization_score": 63, "classification": "Organized Convective Cell", "source": "Radar-DPC VMI (GeoTIFF quantitativo)"}}, {"type": "Feature", "geometry": {"type": "LineString", "coordinates": [[16.915500606541453, 40.59796397591465], [16.918344283529436, 40.704044687342524], [16.838967694927668, 40.08057165757006], [16.887214705637174, 40.10756216149287], [17.60710740369362, 40.41610318568898], [16.379870117934466, 38.316730629934305]]}, "properties": {"feature_type": "track_path", "track_id": 14, "organization_score": 35, "classification": "Convective Cell", "source": "Radar-DPC VMI (GeoTIFF quantitativo)"}}, {"type": "Feature", "geometry": {"type": "LineString", "coordinates": [[11.558622283341359, 40.20187001170769], [11.579006772650285, 40.20140922944926], [11.598989327046517, 40.202430860143984], [11.618259661393632, 40.20047738884333], [11.572551186464267, 40.24101502265356], [11.59466326907936, 40.21571534806996]]}, "properties": {"feature_type": "track_path", "track_id": 15, "organization_score": 45, "classification": "Convective Cell", "source": "Radar-DPC VMI (GeoTIFF quantitativo)"}}, {"type": "Feature", "geometry": {"type": "LineString", "coordinates": [[7.953074561124389, 46.89409100990442], [7.992901173051826, 46.90770062149072], [7.992901173051826, 46.90770062149072]]}, "properties": {"feature_type": "track_path", "track_id": 16, "organization_score": 39, "classification": "Convective Cell", "source": "Radar-DPC VMI (GeoTIFF quantitativo)"}}, {"type": "Feature", "geometry": {"type": "LineString", "coordinates": [[12.366399237433388, 41.30285684604721], [12.3776976051254, 41.29189933870046], [12.389204703127142, 41.28472649676804], [12.465625244328512, 41.233064343257915], [12.467296076734591, 41.22258671001265], [12.474613833352, 41.215497607689876]]}, "properties": {"feature_type": "track_path", "track_id": 17, "organization_score": 77, "classification": "Highly Organized Convective Cell", "source": "Radar-DPC VMI (GeoTIFF quantitativo)"}}, {"type": "Feature", "geometry": {"type": "LineString", "coordinates": [[8.439316403144208, 46.78482959161524], [8.454070138874714, 46.58342575879109], [8.454070138874714, 46.58342575879109]]}, "properties": {"feature_type": "track_path", "track_id": 18, "organization_score": 40, "classification": "Convective Cell", "source": "Radar-DPC VMI (GeoTIFF quantitativo)"}}, {"type": "Feature", "geometry": {"type": "LineString", "coordinates": [[15.958181400545985, 35.90167582796694], [15.815128547481905, 35.620350722092994], [15.823668249534256, 37.109378026098966], [15.886484649168212, 36.68510570018006], [15.916735388432961, 36.706553192624824], [15.939669612159527, 36.733807079075575]]}, "properties": {"feature_type": "track_path", "track_id": 19, "organization_score": 63, "classification": "Organized Convective Cell", "source": "Radar-DPC VMI (GeoTIFF quantitativo)"}}, {"type": "Feature", "geometry": {"type": "LineString", "coordinates": [[12.478692179982442, 40.561991422298924], [12.47373124811408, 40.570536116034056], [12.475207523751413, 40.57136820675825], [12.474498030079015, 40.571991806254], [12.48324540912765, 40.572716141552895], [12.481570541937106, 40.56714284813635]]}, "properties": {"feature_type": "track_path", "track_id": 20, "organization_score": 45, "classification": "Convective Cell", "source": "Radar-DPC VMI (GeoTIFF quantitativo)"}}, {"type": "Feature", "geometry": {"type": "LineString", "coordinates": [[14.147074790726489, 40.48747871221135], [14.147918168633515, 40.47482522019722], [13.672681705982352, 40.99890599401937], [13.677664664473324, 41.01010633029613], [13.68186043938229, 41.025397308944555], [13.68858916689547, 41.029906169870074]]}, "properties": {"feature_type": "track_path", "track_id": 21, "organization_score": 32, "classification": "Convective Cell", "source": "Radar-DPC VMI (GeoTIFF quantitativo)"}}, {"type": "Feature", "geometry": {"type": "LineString", "coordinates": [[15.95385559126007, 37.17150028109399], [15.91914856849065, 37.156493361904744], [16.080764183187586, 37.24098474595334], [15.975743668255468, 37.19419343198682], [16.04167820904094, 37.190967570548345], [16.28568701791441, 36.5783329011843]]}, "properties": {"feature_type": "track_path", "track_id": 22, "organization_score": 62, "classification": "Organized Convective Cell", "source": "Radar-DPC VMI (GeoTIFF quantitativo)"}}, {"type": "Feature", "geometry": {"type": "LineString", "coordinates": [[16.145922680988328, 43.08417349502582], [16.130007359136716, 43.10609141244631], [16.111056594336283, 43.129897583506086], [16.094904252863877, 43.158008212115085], [16.104993038434248, 43.1893703778827], [16.14585175542968, 43.22584747106025]]}, "properties": {"feature_type": "track_path", "track_id": 23, "organization_score": 40, "classification": "Convective Cell", "source": "Radar-DPC VMI (GeoTIFF quantitativo)"}}, {"type": "Feature", "geometry": {"type": "LineString", "coordinates": [[14.454291658249778, 40.226341837585174], [14.45401684913268, 40.22606457230166], [14.513693786514995, 40.30422005579157], [14.513884479784164, 40.3046806050247], [14.699957698342432, 40.470443007708774], [14.696466861949634, 40.47254977563676]]}, "properties": {"feature_type": "track_path", "track_id": 24, "organization_score": 50, "classification": "Convective Cell", "source": "Radar-DPC VMI (GeoTIFF quantitativo)"}}, {"type": "Feature", "geometry": {"type": "LineString", "coordinates": [[9.940506646031867, 47.39437761578868], [9.989794771642737, 47.38657303848371], [9.989794771642737, 47.38657303848371]]}, "properties": {"feature_type": "track_path", "track_id": 25, "organization_score": 40, "classification": "Convective Cell", "source": "Radar-DPC VMI (GeoTIFF quantitativo)"}}, {"type": "Feature", "geometry": {"type": "LineString", "coordinates": [[14.686161991302594, 40.58657143496697], [14.719322720857297, 40.4757922319087], [14.726792751328498, 40.499109526663645], [14.72907384022792, 40.50466835148337], [14.776630958918876, 40.56964960817082], [14.776491585902928, 40.57542837531]]}, "properties": {"feature_type": "track_path", "track_id": 26, "organization_score": 52, "classification": "Convective Cell", "source": "Radar-DPC VMI (GeoTIFF quantitativo)"}}, {"type": "Feature", "geometry": {"type": "LineString", "coordinates": [[10.433967517984174, 42.36471063279445], [10.448124661406306, 42.36401417445458], [10.458387540206486, 42.345398907074404], [10.46975555599147, 42.34405277893516], [10.4771058234617, 42.3303946342503], [10.48638813031301, 42.30589765434132]]}, "properties": {"feature_type": "track_path", "track_id": 27, "organization_score": 48, "classification": "Convective Cell", "source": "Radar-DPC VMI (GeoTIFF quantitativo)"}}, {"type": "Feature", "geometry": {"type": "LineString", "coordinates": [[14.686541224826891, 40.95171043983868], [14.689318325915776, 40.9494163078912], [14.701178407264251, 40.97612265957166], [14.713689920206237, 40.97570158804365], [14.711938536925363, 40.85338526171638], [14.725153359347745, 40.8529954036781]]}, "properties": {"feature_type": "track_path", "track_id": 28, "organization_score": 39, "classification": "Convective Cell", "source": "Radar-DPC VMI (GeoTIFF quantitativo)"}}, {"type": "Feature", "geometry": {"type": "LineString", "coordinates": [[13.152156094061766, 42.37943873361622], [13.146534016534238, 42.38044522929894], [13.14113535175223, 42.38370952929072], [13.031641879939114, 42.386547966780775], [13.030008543187998, 42.393635663900504], [13.028749047027695, 42.38709360108935]]}, "properties": {"feature_type": "track_path", "track_id": 29, "organization_score": 35, "classification": "Convective Cell", "source": "Radar-DPC VMI (GeoTIFF quantitativo)"}}, {"type": "Feature", "geometry": {"type": "LineString", "coordinates": [[15.222012802839167, 37.46159204430235], [15.238374122803021, 37.46414788961949], [15.249064143495502, 37.46953229865971], [15.288968528562675, 37.49023594717316], [15.326291188209073, 37.51206357877101], [15.3339389232795, 37.52308460977398]]}, "properties": {"feature_type": "track_path", "track_id": 30, "organization_score": 85, "classification": "Highly Organized Convective Cell", "source": "Radar-DPC VMI (GeoTIFF quantitativo)"}}, {"type": "Feature", "geometry": {"type": "LineString", "coordinates": [[16.00246795698021, 41.465686058926224], [16.015999020211378, 41.49608542325776], [16.022739674557986, 41.438929219152314], [16.02766559056063, 41.45474994899526], [16.045095064341808, 41.4698616253184], [16.053721995240608, 41.45780805981972]]}, "properties": {"feature_type": "track_path", "track_id": 31, "organization_score": 37, "classification": "Convective Cell", "source": "Radar-DPC VMI (GeoTIFF quantitativo)"}}, {"type": "Feature", "geometry": {"type": "LineString", "coordinates": [[11.037430509753126, 40.72866437271082], [11.04647504860054, 40.69998914302625], [11.052464086509191, 40.68719918272377], [11.0460261884202, 40.662120375079304], [11.049039943070008, 40.64060531122458], [11.057693461437529, 40.60007922195749]]}, "properties": {"feature_type": "track_path", "track_id": 32, "organization_score": 69, "classification": "Organized Convective Cell", "source": "Radar-DPC VMI (GeoTIFF quantitativo)"}}, {"type": "Feature", "geometry": {"type": "LineString", "coordinates": [[12.491627878542566, 40.89246226241728], [12.50482745128763, 40.88514426873609], [12.497515997398446, 40.88348893702794], [12.488636764029694, 40.88474258576194], [12.476874985791536, 40.87578729682985], [12.456081381607518, 40.86861017870609]]}, "properties": {"feature_type": "track_path", "track_id": 33, "organization_score": 61, "classification": "Organized Convective Cell", "source": "Radar-DPC VMI (GeoTIFF quantitativo)"}}, {"type": "Feature", "geometry": {"type": "LineString", "coordinates": [[13.613465766444687, 38.59059278408103], [13.66578691845979, 38.616671644529454], [13.678021606013626, 38.623067253946616], [13.69355373189112, 38.62653008872472], [13.719786764509717, 38.63255738551876], [13.759030586227034, 38.65644151490764]]}, "properties": {"feature_type": "track_path", "track_id": 34, "organization_score": 32, "classification": "Convective Cell", "source": "Radar-DPC VMI (GeoTIFF quantitativo)"}}, {"type": "Feature", "geometry": {"type": "LineString", "coordinates": [[17.127378596418428, 38.5126395443477], [17.129997627274548, 38.53296628181259], [17.100831687122962, 38.52683908689517], [17.131085069235855, 38.55606087247911], [17.176406362721643, 38.58079555319199], [16.905751497711005, 37.15226816908194]]}, "properties": {"feature_type": "track_path", "track_id": 35, "organization_score": 25, "classification": "Weak Convective Cell", "source": "Radar-DPC VMI (GeoTIFF quantitativo)"}}, {"type": "Feature", "geometry": {"type": "LineString", "coordinates": [[15.703921301287306, 35.648995224275886], [15.671048702898464, 35.675280859237944], [15.703896965130586, 35.684130461585845]]}, "properties": {"feature_type": "track_path", "track_id": 36, "organization_score": 53, "classification": "Convective Cell", "source": "Radar-DPC VMI (GeoTIFF quantitativo)"}}, {"type": "Feature", "geometry": {"type": "LineString", "coordinates": [[15.346799785598554, 41.73823745273904], [15.352075154905904, 41.75403360822783], [15.351715293748478, 41.77420710084295], [15.360162705863246, 41.79785621598279], [15.377646958930805, 41.7990914304047], [15.375418227100175, 41.8396611559368]]}, "properties": {"feature_type": "track_path", "track_id": 37, "organization_score": 65, "classification": "Organized Convective Cell", "source": "Radar-DPC VMI (GeoTIFF quantitativo)"}}, {"type": "Feature", "geometry": {"type": "LineString", "coordinates": [[13.029613506424203, 41.14680972169039], [13.03908358641596, 41.15062417206316], [13.04482688658699, 41.15022051118286], [13.04449514524822, 41.163477180019704], [13.0309853236142, 41.168592392832444], [13.023797741831988, 41.17024854453568]]}, "properties": {"feature_type": "track_path", "track_id": 38, "organization_score": 38, "classification": "Convective Cell", "source": "Radar-DPC VMI (GeoTIFF quantitativo)"}}, {"type": "Feature", "geometry": {"type": "LineString", "coordinates": [[15.253374242632743, 45.4123572893501], [15.268659300921728, 45.442341201103446], [13.876475714706672, 47.045307201798494], [13.896134817246493, 47.044955732791216], [13.909115453554529, 47.04277471161676], [13.919571343100133, 47.047228130177196]]}, "properties": {"feature_type": "track_path", "track_id": 39, "organization_score": 29, "classification": "Weak Convective Cell", "source": "Radar-DPC VMI (GeoTIFF quantitativo)"}}, {"type": "Feature", "geometry": {"type": "LineString", "coordinates": [[13.539175160465248, 47.319688990228684], [13.574723367230513, 47.3501088889911], [13.588640839170361, 47.366275978224856], [15.281492101964623, 45.50564103722021], [15.271170192132407, 45.48226631673963], [15.272618283388358, 45.481341168091554]]}, "properties": {"feature_type": "track_path", "track_id": 40, "organization_score": 27, "classification": "Weak Convective Cell", "source": "Radar-DPC VMI (GeoTIFF quantitativo)"}}, {"type": "Feature", "geometry": {"type": "LineString", "coordinates": [[11.072179765907736, 41.61926977527469], [11.067565351564319, 41.59661169896831], [11.070440031115984, 41.57730618464799], [11.076000940308823, 41.56372004253568], [11.079661548698706, 41.54099820795964], [11.084277234005063, 41.525859533330475]]}, "properties": {"feature_type": "track_path", "track_id": 41, "organization_score": 56, "classification": "Organized Convective Cell", "source": "Radar-DPC VMI (GeoTIFF quantitativo)"}}, {"type": "Feature", "geometry": {"type": "LineString", "coordinates": [[16.76381330565292, 37.77766928912698], [16.79421769088173, 37.813538507733014], [16.835360313598215, 37.839452213753965], [16.75692839514714, 37.44986069724316], [16.84673126338797, 37.13652279953475], [16.8848313356792, 36.83144635684014]]}, "properties": {"feature_type": "track_path", "track_id": 42, "organization_score": 46, "classification": "Convective Cell", "source": "Radar-DPC VMI (GeoTIFF quantitativo)"}}, {"type": "Feature", "geometry": {"type": "LineString", "coordinates": [[13.472869594757018, 42.77010974416042], [13.447594400915806, 42.75778032163686], [13.438590083307192, 42.75812556108671], [13.417422907743406, 42.804576224187926], [13.431124874326352, 42.805218615059395], [13.425329246346456, 46.13841005041617]]}, "properties": {"feature_type": "track_path", "track_id": 43, "organization_score": 43, "classification": "Convective Cell", "source": "Radar-DPC VMI (GeoTIFF quantitativo)"}}, {"type": "Feature", "geometry": {"type": "LineString", "coordinates": [[17.53183076013233, 40.19227054530703], [17.553339552354572, 40.217504169018795], [17.189699243762412, 38.903453339845456], [17.21007645098178, 38.93629661532401], [17.238865372061635, 38.95280318285096], [16.793451609305343, 37.96602386575756]]}, "properties": {"feature_type": "track_path", "track_id": 44, "organization_score": 45, "classification": "Convective Cell", "source": "Radar-DPC VMI (GeoTIFF quantitativo)"}}, {"type": "Feature", "geometry": {"type": "LineString", "coordinates": [[15.716615469358562, 37.03365619380233], [15.854609678252382, 36.32454424723118], [15.883779437882396, 36.33840175036802], [15.891969093705907, 36.3408916580644], [15.912764124443404, 36.347300565603106], [15.90591781468556, 36.31248527041778]]}, "properties": {"feature_type": "track_path", "track_id": 45, "organization_score": 73, "classification": "Organized Convective Cell", "source": "Radar-DPC VMI (GeoTIFF quantitativo)"}}, {"type": "Feature", "geometry": {"type": "LineString", "coordinates": [[14.547705915206102, 43.16433790986496], [14.54620633227746, 43.15403879673843], [14.551097090287383, 43.1478213586935], [14.570031319236175, 43.15570988940518], [14.588382902441015, 43.16223033760988], [14.58853733283497, 43.15581479897682]]}, "properties": {"feature_type": "track_path", "track_id": 46, "organization_score": 62, "classification": "Organized Convective Cell", "source": "Radar-DPC VMI (GeoTIFF quantitativo)"}}, {"type": "Feature", "geometry": {"type": "LineString", "coordinates": [[8.853541056936328, 47.50913820495854], [8.921041001900393, 47.519553310697965], [8.921041001900393, 47.519553310697965]]}, "properties": {"feature_type": "track_path", "track_id": 47, "organization_score": 37, "classification": "Convective Cell", "source": "Radar-DPC VMI (GeoTIFF quantitativo)"}}, {"type": "Feature", "geometry": {"type": "LineString", "coordinates": [[13.35559464261327, 42.88727072515137], [13.365457064142904, 42.89200421222123], [13.371447003851094, 42.888781033166005], [12.762567497631167, 43.204965781089086], [12.603681936273158, 43.875283458663745], [12.619824175844817, 43.87013603226891]]}, "properties": {"feature_type": "track_path", "track_id": 48, "organization_score": 37, "classification": "Convective Cell", "source": "Radar-DPC VMI (GeoTIFF quantitativo)"}}, {"type": "Feature", "geometry": {"type": "LineString", "coordinates": [[15.962682280234544, 41.179384053975795], [15.980914290389553, 41.22875328747889], [16.603231115319574, 41.07809519613971], [16.60085290064154, 41.086647195813086], [16.50278079559813, 41.12368779829841], [16.50607302474097, 41.12845404455767]]}, "properties": {"feature_type": "track_path", "track_id": 49, "organization_score": 33, "classification": "Convective Cell", "source": "Radar-DPC VMI (GeoTIFF quantitativo)"}}, {"type": "Feature", "geometry": {"type": "LineString", "coordinates": [[9.605533558608576, 47.05716831233127], [9.64486941292022, 47.05763544006765], [9.64486941292022, 47.05763544006765]]}, "properties": {"feature_type": "track_path", "track_id": 50, "organization_score": 27, "classification": "Weak Convective Cell", "source": "Radar-DPC VMI (GeoTIFF quantitativo)"}}, {"type": "Feature", "geometry": {"type": "LineString", "coordinates": [[14.841729759822782, 41.58613543152094], [14.650334993165195, 40.694135404861456], [14.625630750807607, 40.73546873102273], [14.627401409829021, 40.738177997466224], [14.549952768257407, 40.743507924930036], [14.549169542751693, 40.74728307490012]]}, "properties": {"feature_type": "track_path", "track_id": 51, "organization_score": 44, "classification": "Convective Cell", "source": "Radar-DPC VMI (GeoTIFF quantitativo)"}}, {"type": "Feature", "geometry": {"type": "LineString", "coordinates": [[12.302297894397533, 40.230770090347036], [12.306770576252877, 40.215107370132266], [12.314313268629357, 40.20749829216952], [12.335227103652286, 40.19779390657174], [12.34623272309463, 40.186237584366], [12.352411751401192, 40.17818403457835]]}, "properties": {"feature_type": "track_path", "track_id": 52, "organization_score": 55, "classification": "Convective Cell", "source": "Radar-DPC VMI (GeoTIFF quantitativo)"}}, {"type": "Feature", "geometry": {"type": "LineString", "coordinates": [[14.204939521441611, 40.06688318805761], [14.204939521441611, 40.06688318805761], [14.43420843833113, 40.13219445977194], [14.437230758574467, 40.12843762904842], [14.668558608606649, 40.33315600612042], [14.67537186891089, 40.34236028545312]]}, "properties": {"feature_type": "track_path", "track_id": 53, "organization_score": 42, "classification": "Convective Cell", "source": "Radar-DPC VMI (GeoTIFF quantitativo)"}}, {"type": "Feature", "geometry": {"type": "LineString", "coordinates": [[12.820269358751192, 41.033978269990236], [12.831377340632278, 41.02494896954085], [12.80359275884123, 41.031688886834914], [12.376353130540132, 41.01941597263784], [11.66510351319483, 41.0889440787608], [11.666292805286565, 41.074682712634846]]}, "properties": {"feature_type": "track_path", "track_id": 54, "organization_score": 52, "classification": "Convective Cell", "source": "Radar-DPC VMI (GeoTIFF quantitativo)"}}, {"type": "Feature", "geometry": {"type": "LineString", "coordinates": [[13.188925608751305, 42.65688061728589], [13.190638848204909, 42.65399515090949], [13.958676466274145, 44.36569322398869], [15.226582370134498, 45.33668971401348], [14.666630828059278, 43.302843617279414], [14.673742934315179, 43.296778288120336]]}, "properties": {"feature_type": "track_path", "track_id": 55, "organization_score": 46, "classification": "Convective Cell", "source": "Radar-DPC VMI (GeoTIFF quantitativo)"}}, {"type": "Feature", "geometry": {"type": "LineString", "coordinates": [[15.990000177809696, 39.8825794870829], [16.04476966953462, 39.92397224334747], [16.544373282666847, 38.260309507351764], [16.507346146628425, 37.910097786962375], [16.529806656904455, 37.950453637370515], [16.580513100366748, 37.95827581070392]]}, "properties": {"feature_type": "track_path", "track_id": 56, "organization_score": 30, "classification": "Weak Convective Cell", "source": "Radar-DPC VMI (GeoTIFF quantitativo)"}}, {"type": "Feature", "geometry": {"type": "LineString", "coordinates": [[15.908746057206185, 40.00800024486662], [15.93644829734842, 40.0483647023975], [15.972478398524883, 39.35214291676261]]}, "properties": {"feature_type": "track_path", "track_id": 57, "organization_score": 25, "classification": "Weak Convective Cell", "source": "Radar-DPC VMI (GeoTIFF quantitativo)"}}, {"type": "Feature", "geometry": {"type": "LineString", "coordinates": [[10.63101931114568, 41.44133194475663], [10.63959795472466, 41.412347630286746], [10.665444441855374, 41.37538379196415]]}, "properties": {"feature_type": "track_path", "track_id": 58, "organization_score": 41, "classification": "Convective Cell", "source": "Radar-DPC VMI (GeoTIFF quantitativo)"}}, {"type": "Feature", "geometry": {"type": "LineString", "coordinates": [[11.140476287934495, 40.47714160070435], [11.167067942271483, 40.43517360190626], [11.19848154406469, 40.417754730812526], [11.24364613612323, 40.38015880345821], [11.669474778548079, 39.88225892641777]]}, "properties": {"feature_type": "track_path", "track_id": 59, "organization_score": 41, "classification": "Convective Cell", "source": "Radar-DPC VMI (GeoTIFF quantitativo)"}}, {"type": "Feature", "geometry": {"type": "LineString", "coordinates": [[14.523637055099256, 41.765596748158416], [14.509728001230252, 41.773723433375], [14.511831995177028, 41.79071569140218], [13.204410355255677, 42.393643013652834], [13.200186904961473, 42.38859914350216], [13.19968990517808, 42.385197911544566]]}, "properties": {"feature_type": "track_path", "track_id": 60, "organization_score": 33, "classification": "Convective Cell", "source": "Radar-DPC VMI (GeoTIFF quantitativo)"}}, {"type": "Feature", "geometry": {"type": "LineString", "coordinates": [[12.67315954708566, 42.296276061185736], [12.667446408796025, 42.30008746544669], [12.668826093630306, 42.30194427644293], [12.672376929853554, 42.29999536350622], [12.676092685398181, 42.29743709468989]]}, "properties": {"feature_type": "track_path", "track_id": 61, "organization_score": 42, "classification": "Convective Cell", "source": "Radar-DPC VMI (GeoTIFF quantitativo)"}}, {"type": "Feature", "geometry": {"type": "LineString", "coordinates": [[14.59768344855002, 42.09630649929144], [14.587413029448944, 42.108002038084095], [14.584275591735283, 42.1203011384654], [14.5904483053702, 42.12665866478495], [14.589390089656348, 42.13597692175793], [14.584015019693194, 42.135244964513426]]}, "properties": {"feature_type": "track_path", "track_id": 62, "organization_score": 64, "classification": "Organized Convective Cell", "source": "Radar-DPC VMI (GeoTIFF quantitativo)"}}, {"type": "Feature", "geometry": {"type": "LineString", "coordinates": [[10.78329978469543, 41.15626629958459], [10.794341180172044, 41.12186048868551], [7.760409554736843, 38.926072204671435]]}, "properties": {"feature_type": "track_path", "track_id": 63, "organization_score": 27, "classification": "Weak Convective Cell", "source": "Radar-DPC VMI (GeoTIFF quantitativo)"}}, {"type": "Feature", "geometry": {"type": "LineString", "coordinates": [[9.839784235353507, 40.83631839553732], [9.856755333723603, 40.79675567318161], [9.851229306330927, 40.769766307610915], [9.866263782793752, 40.723342908475395], [10.67463224286841, 41.32107456660723]]}, "properties": {"feature_type": "track_path", "track_id": 64, "organization_score": 27, "classification": "Weak Convective Cell", "source": "Radar-DPC VMI (GeoTIFF quantitativo)"}}, {"type": "Feature", "geometry": {"type": "LineString", "coordinates": [[15.427513342619672, 38.505085409630155], [16.182563817327804, 39.84880541351942], [16.836393770921156, 38.17066635916077], [16.88265570946494, 38.16381783906257], [16.922194732612564, 38.16025293247397], [16.441859453446103, 37.4291213883985]]}, "properties": {"feature_type": "track_path", "track_id": 65, "organization_score": 30, "classification": "Weak Convective Cell", "source": "Radar-DPC VMI (GeoTIFF quantitativo)"}}, {"type": "Feature", "geometry": {"type": "LineString", "coordinates": [[9.737283089069109, 47.12557381761299], [10.54405916766272, 47.30194924427089], [10.54405916766272, 47.30194924427089]]}, "properties": {"feature_type": "track_path", "track_id": 66, "organization_score": 25, "classification": "Weak Convective Cell", "source": "Radar-DPC VMI (GeoTIFF quantitativo)"}}, {"type": "Feature", "geometry": {"type": "LineString", "coordinates": [[7.565701431849912, 39.112788110266685], [7.562155617202703, 39.11073745186416], [7.623256360121668, 39.05220957540411], [7.6590976449634205, 39.03030366804025], [9.875748362789285, 40.69474537803861], [9.885950066166796, 40.66004584707711]]}, "properties": {"feature_type": "track_path", "track_id": 67, "organization_score": 31, "classification": "Convective Cell", "source": "Radar-DPC VMI (GeoTIFF quantitativo)"}}, {"type": "Feature", "geometry": {"type": "LineString", "coordinates": [[15.769251378733605, 37.49730787396596], [16.78130662943714, 38.1388517458882], [16.862938615286126, 38.060898527936644], [16.54051298482622, 37.41172092107828], [16.600917589012948, 37.197356872102766], [16.622717169359067, 37.21920730005669]]}, "properties": {"feature_type": "track_path", "track_id": 68, "organization_score": 60, "classification": "Organized Convective Cell", "source": "Radar-DPC VMI (GeoTIFF quantitativo)"}}, {"type": "Feature", "geometry": {"type": "LineString", "coordinates": [[8.850124507668921, 47.36006771242791], [6.108890640186441, 45.9032007510323], [6.108890640186441, 45.9032007510323]]}, "properties": {"feature_type": "track_path", "track_id": 69, "organization_score": 29, "classification": "Weak Convective Cell", "source": "Radar-DPC VMI (GeoTIFF quantitativo)"}}, {"type": "Feature", "geometry": {"type": "LineString", "coordinates": [[15.736347312854438, 36.92457552160915], [15.736347312854438, 36.92457552160915], [15.763275924262413, 36.92266019585285], [15.763275924262413, 36.92266019585285], [15.763831106203614, 36.93497258697122], [15.763831106203614, 36.93497258697122]]}, "properties": {"feature_type": "track_path", "track_id": 70, "organization_score": 37, "classification": "Convective Cell", "source": "Radar-DPC VMI (GeoTIFF quantitativo)"}}, {"type": "Feature", "geometry": {"type": "LineString", "coordinates": [[8.552457579134824, 46.44899686439958], [7.61480455998882, 46.17925524018208], [7.61480455998882, 46.17925524018208]]}, "properties": {"feature_type": "track_path", "track_id": 71, "organization_score": 24, "classification": "Weak Convective Cell", "source": "Radar-DPC VMI (GeoTIFF quantitativo)"}}, {"type": "Feature", "geometry": {"type": "LineString", "coordinates": [[9.04995693502592, 47.40485757090018], [9.103251443535257, 47.40258612455462], [9.103251443535257, 47.40258612455462]]}, "properties": {"feature_type": "track_path", "track_id": 72, "organization_score": 28, "classification": "Weak Convective Cell", "source": "Radar-DPC VMI (GeoTIFF quantitativo)"}}, {"type": "Feature", "geometry": {"type": "LineString", "coordinates": [[15.9301707079473, 43.289713341370366], [14.842701534737389, 41.56132862676813], [16.1391288064343, 43.27886983836546], [16.152863385864062, 43.28293144192433], [16.15949629634528, 43.29291293477544]]}, "properties": {"feature_type": "track_path", "track_id": 73, "organization_score": 32, "classification": "Convective Cell", "source": "Radar-DPC VMI (GeoTIFF quantitativo)"}}, {"type": "Feature", "geometry": {"type": "LineString", "coordinates": [[9.079518498918286, 47.318531509991615], [10.594823100153546, 47.47819240834729], [10.594823100153546, 47.47819240834729]]}, "properties": {"feature_type": "track_path", "track_id": 74, "organization_score": 36, "classification": "Convective Cell", "source": "Radar-DPC VMI (GeoTIFF quantitativo)"}}, {"type": "Feature", "geometry": {"type": "LineString", "coordinates": [[17.16008101535619, 38.84136884659948], [17.179158282311928, 38.87016644699826], [17.269218097520202, 38.60135005076748]]}, "properties": {"feature_type": "track_path", "track_id": 76, "organization_score": 27, "classification": "Weak Convective Cell", "source": "Radar-DPC VMI (GeoTIFF quantitativo)"}}, {"type": "Feature", "geometry": {"type": "LineString", "coordinates": [[7.450299258277414, 47.15996804540195], [7.508090952073706, 47.18086387684169], [7.508090952073706, 47.18086387684169]]}, "properties": {"feature_type": "track_path", "track_id": 77, "organization_score": 48, "classification": "Convective Cell", "source": "Radar-DPC VMI (GeoTIFF quantitativo)"}}, {"type": "Feature", "geometry": {"type": "LineString", "coordinates": [[13.83932101129012, 42.445404925675746], [14.129637051847908, 40.61049188160323], [13.87144718164102, 42.508846000121274], [13.219870976114363, 42.7385471149694], [13.229595291879424, 42.72353852773512], [12.841835404987062, 43.138063579303164]]}, "properties": {"feature_type": "track_path", "track_id": 78, "organization_score": 45, "classification": "Convective Cell", "source": "Radar-DPC VMI (GeoTIFF quantitativo)"}}, {"type": "Feature", "geometry": {"type": "LineString", "coordinates": [[14.475663482027944, 41.841767691101175], [14.445500396925544, 41.87686527014911], [14.093572644539776, 43.778289703143344], [14.07309913498521, 43.7740923188723], [14.063579773266813, 43.77971208278878], [14.047321229097896, 43.772908502652726]]}, "properties": {"feature_type": "track_path", "track_id": 79, "organization_score": 57, "classification": "Organized Convective Cell", "source": "Radar-DPC VMI (GeoTIFF quantitativo)"}}, {"type": "Feature", "geometry": {"type": "LineString", "coordinates": [[13.320088094838479, 38.349735144850506], [14.958744266482977, 40.08554810406052], [14.967115014565776, 40.10227342006659]]}, "properties": {"feature_type": "track_path", "track_id": 80, "organization_score": 46, "classification": "Convective Cell", "source": "Radar-DPC VMI (GeoTIFF quantitativo)"}}, {"type": "Feature", "geometry": {"type": "LineString", "coordinates": [[16.810372712697568, 40.118800570354296], [17.076798209631065, 40.264923198608166], [17.097706097617646, 40.301620409025595], [17.675224679869263, 40.51979227388249], [17.700483681016127, 40.55323254217152]]}, "properties": {"feature_type": "track_path", "track_id": 81, "organization_score": 35, "classification": "Convective Cell", "source": "Radar-DPC VMI (GeoTIFF quantitativo)"}}, {"type": "Feature", "geometry": {"type": "LineString", "coordinates": [[8.399295464234264, 47.0944839430822], [8.399295464234264, 47.0944839430822]]}, "properties": {"feature_type": "track_path", "track_id": 82, "organization_score": 50, "classification": "Convective Cell", "source": "Radar-DPC VMI (GeoTIFF quantitativo)"}}, {"type": "Feature", "geometry": {"type": "LineString", "coordinates": [[15.848589005694267, 37.136455713267665], [15.862009923776952, 37.166914357576964]]}, "properties": {"feature_type": "track_path", "track_id": 83, "organization_score": 64, "classification": "Organized Convective Cell", "source": "Radar-DPC VMI (GeoTIFF quantitativo)"}}, {"type": "Feature", "geometry": {"type": "LineString", "coordinates": [[10.202235981321035, 47.3496725219452], [10.202235981321035, 47.3496725219452]]}, "properties": {"feature_type": "track_path", "track_id": 84, "organization_score": 32, "classification": "Convective Cell", "source": "Radar-DPC VMI (GeoTIFF quantitativo)"}}, {"type": "Feature", "geometry": {"type": "LineString", "coordinates": [[15.741970616188851, 35.68625075736769], [16.106200232017503, 36.550525750934845]]}, "properties": {"feature_type": "track_path", "track_id": 85, "organization_score": 57, "classification": "Organized Convective Cell", "source": "Radar-DPC VMI (GeoTIFF quantitativo)"}}, {"type": "Feature", "geometry": {"type": "LineString", "coordinates": [[6.244560903353772, 45.91871001062097], [6.244560903353772, 45.91871001062097]]}, "properties": {"feature_type": "track_path", "track_id": 86, "organization_score": 41, "classification": "Convective Cell", "source": "Radar-DPC VMI (GeoTIFF quantitativo)"}}, {"type": "Feature", "geometry": {"type": "LineString", "coordinates": [[9.160491323134726, 47.15364445113014], [9.160491323134726, 47.15364445113014]]}, "properties": {"feature_type": "track_path", "track_id": 87, "organization_score": 26, "classification": "Weak Convective Cell", "source": "Radar-DPC VMI (GeoTIFF quantitativo)"}}, {"type": "Feature", "geometry": {"type": "LineString", "coordinates": [[9.206806971502559, 47.541067827853745], [9.206806971502559, 47.541067827853745]]}, "properties": {"feature_type": "track_path", "track_id": 88, "organization_score": 32, "classification": "Convective Cell", "source": "Radar-DPC VMI (GeoTIFF quantitativo)"}}, {"type": "Feature", "geometry": {"type": "LineString", "coordinates": [[5.907810622423592, 45.616961151054944], [5.907810622423592, 45.616961151054944]]}, "properties": {"feature_type": "track_path", "track_id": 89, "organization_score": 28, "classification": "Weak Convective Cell", "source": "Radar-DPC VMI (GeoTIFF quantitativo)"}}, {"type": "Feature", "geometry": {"type": "LineString", "coordinates": [[11.381882731002976, 41.344932846092625], [11.380592911249854, 41.3260397072891]]}, "properties": {"feature_type": "track_path", "track_id": 90, "organization_score": 52, "classification": "Convective Cell", "source": "Radar-DPC VMI (GeoTIFF quantitativo)"}}, {"type": "Feature", "geometry": {"type": "LineString", "coordinates": [[14.660999627409007, 40.64148922354135], [14.661665622831414, 40.64111858356889]]}, "properties": {"feature_type": "track_path", "track_id": 91, "organization_score": 47, "classification": "Convective Cell", "source": "Radar-DPC VMI (GeoTIFF quantitativo)"}}, {"type": "Feature", "geometry": {"type": "LineString", "coordinates": [[9.806020891174315, 47.047808705611274], [9.806020891174315, 47.047808705611274]]}, "properties": {"feature_type": "track_path", "track_id": 92, "organization_score": 29, "classification": "Weak Convective Cell", "source": "Radar-DPC VMI (GeoTIFF quantitativo)"}}, {"type": "Feature", "geometry": {"type": "LineString", "coordinates": [[12.13025185747603, 42.278492174413906], [12.144294100934264, 42.291547193075615]]}, "properties": {"feature_type": "track_path", "track_id": 93, "organization_score": 53, "classification": "Convective Cell", "source": "Radar-DPC VMI (GeoTIFF quantitativo)"}}, {"type": "Feature", "geometry": {"type": "LineString", "coordinates": [[10.880154298801102, 47.64281950571203], [10.880154298801102, 47.64281950571203]]}, "properties": {"feature_type": "track_path", "track_id": 94, "organization_score": 24, "classification": "Weak Convective Cell", "source": "Radar-DPC VMI (GeoTIFF quantitativo)"}}, {"type": "Feature", "geometry": {"type": "LineString", "coordinates": [[15.426043649832685, 37.89974830006866], [15.436369502578746, 37.90541277316519]]}, "properties": {"feature_type": "track_path", "track_id": 95, "organization_score": 28, "classification": "Weak Convective Cell", "source": "Radar-DPC VMI (GeoTIFF quantitativo)"}}, {"type": "Feature", "geometry": {"type": "LineString", "coordinates": [[10.009120912195808, 47.156755378732576], [10.009120912195808, 47.156755378732576]]}, "properties": {"feature_type": "track_path", "track_id": 96, "organization_score": 30, "classification": "Weak Convective Cell", "source": "Radar-DPC VMI (GeoTIFF quantitativo)"}}, {"type": "Feature", "geometry": {"type": "LineString", "coordinates": [[13.524915792714578, 38.39883215519097], [13.552065771376311, 38.408203890243115]]}, "properties": {"feature_type": "track_path", "track_id": 97, "organization_score": 25, "classification": "Weak Convective Cell", "source": "Radar-DPC VMI (GeoTIFF quantitativo)"}}]}